CCSDS_OMM_VERS = 2.0
CREATION_DATE  = 
ORIGINATOR     = 

OBJECT_NAME    = TWILIGHT V
OBJECT_ID      = 2026-004V
CENTER_NAME    = EARTH
REF_FRAME      = TEME
TIME_SYSTEM    = UTC
MEAN_ELEMENT_THEORY = SGP/SGP4

EPOCH          = 2026-01-25T19:16:12.078912
MEAN_MOTION    = 14.87990139
ECCENTRICITY   = .0003576
INCLINATION    = 97.8002
RA_OF_ASC_NODE = 26.7378
ARG_OF_PERICENTER = 215.3650
MEAN_ANOMALY   = 144.7330

EPHEMERIS_TYPE = 0
CLASSIFICATION_TYPE = U
NORAD_CAT_ID   = 67382
ELEMENT_SET_NO = 999
REV_AT_EPOCH   = 211
BSTAR          = .57432E-3
MEAN_MOTION_DOT = .5218E-4
MEAN_MOTION_DDOT = 0

CCSDS_OMM_VERS = 2.0
CREATION_DATE  = 
ORIGINATOR     = 

OBJECT_NAME    = TWILIGHT W
OBJECT_ID      = 2026-004W
CENTER_NAME    = EARTH
REF_FRAME      = TEME
TIME_SYSTEM    = UTC
MEAN_ELEMENT_THEORY = SGP/SGP4

EPOCH          = 2026-01-25T19:19:58.325088
MEAN_MOTION    = 14.87713235
ECCENTRICITY   = .0003965
INCLINATION    = 97.7979
RA_OF_ASC_NODE = 26.7324
ARG_OF_PERICENTER = 234.9592
MEAN_ANOMALY   = 125.1253

EPHEMERIS_TYPE = 0
CLASSIFICATION_TYPE = U
NORAD_CAT_ID   = 67383
ELEMENT_SET_NO = 999
REV_AT_EPOCH   = 211
BSTAR          = .61504E-3
MEAN_MOTION_DOT = .5554E-4
MEAN_MOTION_DDOT = 0

CCSDS_OMM_VERS = 2.0
CREATION_DATE  = 
ORIGINATOR     = 

OBJECT_NAME    = TWILIGHT X
OBJECT_ID      = 2026-004X
CENTER_NAME    = EARTH
REF_FRAME      = TEME
TIME_SYSTEM    = UTC
MEAN_ELEMENT_THEORY = SGP/SGP4

EPOCH          = 2026-01-25T19:14:56.681952
MEAN_MOTION    = 14.88161380
ECCENTRICITY   = .000297
INCLINATION    = 97.7977
RA_OF_ASC_NODE = 26.7369
ARG_OF_PERICENTER = 216.5045
MEAN_ANOMALY   = 143.5969

EPHEMERIS_TYPE = 0
CLASSIFICATION_TYPE = U
NORAD_CAT_ID   = 67384
ELEMENT_SET_NO = 999
REV_AT_EPOCH   = 211
BSTAR          = .11983E-2
MEAN_MOTION_DOT = .11001E-3
MEAN_MOTION_DDOT = 0

CCSDS_OMM_VERS = 2.0
CREATION_DATE  = 
ORIGINATOR     = 

OBJECT_NAME    = TWILIGHT Y
OBJECT_ID      = 2026-004Y
CENTER_NAME    = EARTH
REF_FRAME      = TEME
TIME_SYSTEM    = UTC
MEAN_ELEMENT_THEORY = SGP/SGP4

EPOCH          = 2026-01-25T19:13:46.900992
MEAN_MOTION    = 14.88242600
ECCENTRICITY   = .0002879
INCLINATION    = 97.7988
RA_OF_ASC_NODE = 26.7388
ARG_OF_PERICENTER = 209.3374
MEAN_ANOMALY   = 150.7681

EPHEMERIS_TYPE = 0
CLASSIFICATION_TYPE = U
NORAD_CAT_ID   = 67385
ELEMENT_SET_NO = 999
REV_AT_EPOCH   = 211
BSTAR          = .1065E-2
MEAN_MOTION_DOT = .9789E-4
MEAN_MOTION_DDOT = 0

CCSDS_OMM_VERS = 2.0
CREATION_DATE  = 
ORIGINATOR     = 

OBJECT_NAME    = TWILIGHT Z
OBJECT_ID      = 2026-004Z
CENTER_NAME    = EARTH
REF_FRAME      = TEME
TIME_SYSTEM    = UTC
MEAN_ELEMENT_THEORY = SGP/SGP4

EPOCH          = 2026-01-25T19:11:50.036352
MEAN_MOTION    = 14.88297255
ECCENTRICITY   = .0001766
INCLINATION    = 97.7968
RA_OF_ASC_NODE = 26.7400
ARG_OF_PERICENTER = 206.3286
MEAN_ANOMALY   = 153.7841

EPHEMERIS_TYPE = 0
CLASSIFICATION_TYPE = U
NORAD_CAT_ID   = 67386
ELEMENT_SET_NO = 999
REV_AT_EPOCH   = 211
BSTAR          = .4725E-3
MEAN_MOTION_DOT = .4315E-4
MEAN_MOTION_DDOT = 0

CCSDS_OMM_VERS = 2.0
CREATION_DATE  = 
ORIGINATOR     = 

OBJECT_NAME    = TWILIGHT AA
OBJECT_ID      = 2026-004AA
CENTER_NAME    = EARTH
REF_FRAME      = TEME
TIME_SYSTEM    = UTC
MEAN_ELEMENT_THEORY = SGP/SGP4

EPOCH          = 2026-01-25T19:08:38.020128
MEAN_MOTION    = 14.88578200
ECCENTRICITY   = .0002928
INCLINATION    = 97.8019
RA_OF_ASC_NODE = 26.7446
ARG_OF_PERICENTER = 171.4026
MEAN_ANOMALY   = 188.7242

EPHEMERIS_TYPE = 0
CLASSIFICATION_TYPE = U
NORAD_CAT_ID   = 67387
ELEMENT_SET_NO = 999
REV_AT_EPOCH   = 211
BSTAR          = .68597E-3
MEAN_MOTION_DOT = .6335E-4
MEAN_MOTION_DDOT = 0

CCSDS_OMM_VERS = 2.0
CREATION_DATE  = 
ORIGINATOR     = 

OBJECT_NAME    = TWILIGHT AB
OBJECT_ID      = 2026-004AB
CENTER_NAME    = EARTH
REF_FRAME      = TEME
TIME_SYSTEM    = UTC
MEAN_ELEMENT_THEORY = SGP/SGP4

EPOCH          = 2026-01-25T19:06:53.076096
MEAN_MOTION    = 14.88681001
ECCENTRICITY   = .0002561
INCLINATION    = 97.8008
RA_OF_ASC_NODE = 26.7458
ARG_OF_PERICENTER = 156.6802
MEAN_ANOMALY   = 203.4532

EPHEMERIS_TYPE = 0
CLASSIFICATION_TYPE = U
NORAD_CAT_ID   = 67388
ELEMENT_SET_NO = 999
REV_AT_EPOCH   = 211
BSTAR          = .6286E-3
MEAN_MOTION_DOT = .5815E-4
MEAN_MOTION_DDOT = 0

CCSDS_OMM_VERS = 2.0
CREATION_DATE  = 
ORIGINATOR     = 

OBJECT_NAME    = TWILIGHT AC
OBJECT_ID      = 2026-004AC
CENTER_NAME    = EARTH
REF_FRAME      = TEME
TIME_SYSTEM    = UTC
MEAN_ELEMENT_THEORY = SGP/SGP4

EPOCH          = 2026-01-25T19:07:54.612768
MEAN_MOTION    = 15.17002227
ECCENTRICITY   = .0005195
INCLINATION    = 97.4571
RA_OF_ASC_NODE = 26.9378
ARG_OF_PERICENTER = 106.2158
MEAN_ANOMALY   = 253.9648

EPHEMERIS_TYPE = 0
CLASSIFICATION_TYPE = U
NORAD_CAT_ID   = 67389
ELEMENT_SET_NO = 999
REV_AT_EPOCH   = 215
BSTAR          = .4444E-3
MEAN_MOTION_DOT = .8722E-4
MEAN_MOTION_DDOT = 0

CCSDS_OMM_VERS = 2.0
CREATION_DATE  = 
ORIGINATOR     = 

OBJECT_NAME    = TWILIGHT AD
OBJECT_ID      = 2026-004AD
CENTER_NAME    = EARTH
REF_FRAME      = TEME
TIME_SYSTEM    = UTC
MEAN_ELEMENT_THEORY = SGP/SGP4

EPOCH          = 2026-01-25T19:07:12.768384
MEAN_MOTION    = 15.17020050
ECCENTRICITY   = .0005475
INCLINATION    = 97.4572
RA_OF_ASC_NODE = 26.9399
ARG_OF_PERICENTER = 104.5746
MEAN_ANOMALY   = 255.6095

EPHEMERIS_TYPE = 0
CLASSIFICATION_TYPE = U
NORAD_CAT_ID   = 67390
ELEMENT_SET_NO = 999
REV_AT_EPOCH   = 215
BSTAR          = .5381E-3
MEAN_MOTION_DOT = .10583E-3
MEAN_MOTION_DDOT = 0

CCSDS_OMM_VERS = 2.0
CREATION_DATE  = 
ORIGINATOR     = 

OBJECT_NAME    = TWILIGHT AE
OBJECT_ID      = 2026-004AE
CENTER_NAME    = EARTH
REF_FRAME      = TEME
TIME_SYSTEM    = UTC
MEAN_ELEMENT_THEORY = SGP/SGP4

EPOCH          = 2026-01-25T19:04:34.790304
MEAN_MOTION    = 15.17193485
ECCENTRICITY   = .000688
INCLINATION    = 97.4521
RA_OF_ASC_NODE = 26.9322
ARG_OF_PERICENTER = 100.3013
MEAN_ANOMALY   = 259.8996

EPHEMERIS_TYPE = 0
CLASSIFICATION_TYPE = U
NORAD_CAT_ID   = 67391
ELEMENT_SET_NO = 999
REV_AT_EPOCH   = 215
BSTAR          = .50674E-3
MEAN_MOTION_DOT = .10013E-3
MEAN_MOTION_DDOT = 0

CCSDS_OMM_VERS = 2.0
CREATION_DATE  = 
ORIGINATOR     = 

OBJECT_NAME    = TWILIGHT AF
OBJECT_ID      = 2026-004AF
CENTER_NAME    = EARTH
REF_FRAME      = TEME
TIME_SYSTEM    = UTC
MEAN_ELEMENT_THEORY = SGP/SGP4

EPOCH          = 2026-01-25T19:02:02.117184
MEAN_MOTION    = 15.17847406
ECCENTRICITY   = .0007582
INCLINATION    = 97.4498
RA_OF_ASC_NODE = 26.9303
ARG_OF_PERICENTER = 102.7459
MEAN_ANOMALY   = 257.4623

EPHEMERIS_TYPE = 0
CLASSIFICATION_TYPE = U
NORAD_CAT_ID   = 67392
ELEMENT_SET_NO = 999
REV_AT_EPOCH   = 215
BSTAR          = .29553E-2
MEAN_MOTION_DOT = .60243E-3
MEAN_MOTION_DDOT = 0

CCSDS_OMM_VERS = 2.0
CREATION_DATE  = 
ORIGINATOR     = 

OBJECT_NAME    = TWILIGHT AG
OBJECT_ID      = 2026-004AG
CENTER_NAME    = EARTH
REF_FRAME      = TEME
TIME_SYSTEM    = UTC
MEAN_ELEMENT_THEORY = SGP/SGP4

EPOCH          = 2026-01-25T15:50:40.670016
MEAN_MOTION    = 15.17812019
ECCENTRICITY   = .00076211
INCLINATION    = 97.4529
RA_OF_ASC_NODE = 26.8080
ARG_OF_PERICENTER = 109.0610
MEAN_ANOMALY   = 251.1450

EPHEMERIS_TYPE = 0
CLASSIFICATION_TYPE = U
NORAD_CAT_ID   = 67393
ELEMENT_SET_NO = 999
REV_AT_EPOCH   = 213
BSTAR          = .21977095E-2
MEAN_MOTION_DOT = .44644E-3
MEAN_MOTION_DDOT = 0

