TWILIGHT V              
1 67382U 26004V   26025.80291758  .00005218  00000+0  57432-3 0  9992
2 67382  97.8002  26.7378 0003576 215.3650 144.7330 14.87990139  2117
TWILIGHT W              
1 67383U 26004W   26025.80553617  .00005554  00000+0  61504-3 0  9996
2 67383  97.7979  26.7324 0003965 234.9592 125.1253 14.87713235  2112
TWILIGHT X              
1 67384U 26004X   26025.80204493  .00011001  00000+0  11983-2 0  9991
2 67384  97.7977  26.7369 0002970 216.5045 143.5969 14.88161380  2111
TWILIGHT Y              
1 67385U 26004Y   26025.80123728  .00009789  00000+0  10650-2 0  9993
2 67385  97.7988  26.7388 0002879 209.3374 150.7681 14.88242600  2114
TWILIGHT Z              
1 67386U 26004Z   26025.79988468  .00004315  00000+0  47250-3 0  9999
2 67386  97.7968  26.7400 0001766 206.3286 153.7841 14.88297255  2118
TWILIGHT AA             
1 67387U 26004AA  26025.79766227  .00006335  00000+0  68597-3 0  9998
2 67387  97.8019  26.7446 0002928 171.4026 188.7242 14.88578200  2117
TWILIGHT AB             
1 67388U 26004AB  26025.79644764  .00005815  00000+0  62860-3 0  9999
2 67388  97.8008  26.7458 0002561 156.6802 203.4532 14.88681001  2110
TWILIGHT AC             
1 67389U 26004AC  26025.79715987  .00008722  00000+0  44440-3 0  9990
2 67389  97.4571  26.9378 0005195 106.2158 253.9648 15.17002227  2158
TWILIGHT AD             
1 67390U 26004AD  26025.79667556  .00010583  00000+0  53810-3 0  9999
2 67390  97.4572  26.9399 0005475 104.5746 255.6095 15.17020050  2158
TWILIGHT AE             
1 67391U 26004AE  26025.79484711  .00010013  00000+0  50674-3 0  9993
2 67391  97.4521  26.9322 0006880 100.3013 259.8996 15.17193485  2150
TWILIGHT AF             
1 67392U 26004AF  26025.79308006  .00060243  00000+0  29553-2 0  9997
2 67392  97.4498  26.9303 0007582 102.7459 257.4623 15.17847406  2153
TWILIGHT AG             
1 67393U 26004AG  26025.66019294  .00044644  00000+0  21977-2 0  9991
2 67393  97.4529  26.8080 0007621 109.0610 251.1450 15.17812019  2132
